IRIDIUM 166             
1 43570U 18061B   23307.41979602  .00000542  00000+0  18630-3 0  9999
2 43570  86.3928  96.6087 0002107  97.2873 262.8563 14.34216434276266
IRIDIUM 158             
1 43571U 18061C   23307.17877771  .00000503  00000+0  17245-3 0  9995
2 43571  86.3929  96.7184 0002383  96.0051 264.1416 14.34218043276202
IRIDIUM 165             
1 43572U 18061D   23306.92507223  .00000481  00000+0  16454-3 0  9996
2 43572  86.3931  96.8528 0002389  96.1566 263.9902 14.34216979276187
IRIDIUM 155             
1 43573U 18061E   23307.16608643  .00000416  00000+0  14136-3 0  9995
2 43573  86.3926  96.6681 0001820  93.2717 266.8687 14.34221592276195
IRIDIUM 154             
1 43574U 18061F   23307.42613121  .00000274  00000+0  90877-4 0  9991
2 43574  86.3933  96.6462 0002154  84.9436 275.2005 14.34214092276271
IRIDIUM 163             
1 43575U 18061G   23307.47687980  .00000544  00000+0  18729-3 0  9996
2 43575  86.3927  96.5696 0002153  87.3721 272.7721 14.34216886276254
IRIDIUM 156             
1 43576U 18061H   23307.17243005  .00000418  00000+0  14204-3 0  9994
2 43576  86.3928  96.7033 0002094  98.4156 261.7277 14.34222484276190
IRIDIUM 164             
1 43577U 18061J   23306.66502337  .00000341  00000+0  11481-3 0  9993
2 43577  86.3928  96.9412 0002230  94.8902 265.2548 14.34220334276175
